date:2024-08-30T03:18:52+00:00
validtle:
invalidtleinfo:Invalid TLE contents
timestamp:2024-08-30T03:18:52+00:00
TLE:
STARLINK-2335
1 47878U 21023U   24241.78044128  .00001388  00000+0  11204-3 0  9997
2 47878  53.0521 256.1671 0001319 100.4699 259.6438 15.06408988191897